IRIDIUM 150             
1 43257U 18030J   25283.58615057 -.00000002  00000+0 -78626-5 0  9997
2 43257  86.4000  34.7926 0001951  89.4551 270.6868 14.34218566394384
IRIDIUM 143             
1 43258U 18030K   25283.77642485  .00000381  00000+0  12901-3 0  9994
2 43258  86.4002  34.7955 0001993  83.7545 276.3878 14.34220770394345
IRIDIUM 161             
1 43478U 18047C   25283.99397784  .00000495  00000+0  14103-3 0  9991
2 43478  86.4562 192.5654 0002320  85.4772 274.6694 14.43279520389196
IRIDIUM 152             
1 43479U 18047D   25283.47007232  .00000568  00000+0  19585-3 0  9991
2 43479  86.4035 192.6444 0002290  85.8047 274.3411 14.34217305386694
IRIDIUM 147             
1 43480U 18047E   25283.75548818  .00000181  00000+0  57691-4 0  9996
2 43480  86.4036 192.5264 0002161  85.9845 274.1598 14.34217285386736
IRIDIUM 110             
1 43481U 18047F   25283.48275705  .00000219  00000+0  71227-4 0  9992
2 43481  86.4042 192.7254 0002372  94.5533 265.5934 14.34219372386680
IRIDIUM 162             
1 43482U 18047G   25283.98767010  .00000498  00000+0  14204-3 0  9993
2 43482  86.4558 192.4621 0002489  84.4782 275.6703 14.43281212389187
IRIDIUM 160             
1 43569U 18061A   25283.91697489  .00000286  00000+0  95131-4 0  9994
2 43569  86.4020 160.9897 0002107  90.8890 269.2547 14.34218909377646
